start=new Date('2022-05-30T00:00:00.000Z').valueOf();
sats=[{"FILE":"3471362","GP_ID":"204889606","SITE":"AFETR","TLE_LINE2":"2 48643  53.0555 196.0545 0001454  64.8549 295.2591 15.06397215 55732","EPOCH":"2022-05-29T19:54:55.255680","BSTAR":"0.00005818200000","ELEMENT_SET_NO":"999","REF_FRAME":"TEME","NORAD_CAT_ID":"48643","COUNTRY_CODE":"US","MEAN_MOTION_DDOT":"0.0000000000000","OBJECT_TYPE":"PAYLOAD","PERIOD":"95.592","RA_OF_ASC_NODE":"196.0545","APOAPSIS":"548.229","OBJECT_NAME":"STARLINK-2704","MEAN_ANOMALY":"295.2591","INCLINATION":"53.0555","SEMIMAJOR_AXIS":"6925.357","CENTER_NAME":"EARTH","RCS_SIZE":"LARGE","ECCENTRICITY":"0.00014540","MEAN_ELEMENT_THEORY":"SGP4","OBJECT_ID":"2021-044F","DECAY_DATE":null,"MEAN_MOTION_DOT":"0.00000585","LAUNCH_DATE":"2021-05-26","PERIAPSIS":"546.215","TIME_SYSTEM":"UTC","TLE_LINE1":"1 48643U 21044F   22149.82980620  .00000585  00000-0  58182-4 0  9995","REV_AT_EPOCH":"5573","EPHEMERIS_TYPE":"0","ARG_OF_PERICENTER":"64.8549","MEAN_MOTION":"15.06397215","CLASSIFICATION_TYPE":"U"},{"OBJECT_TYPE":"PAYLOAD","COUNTRY_CODE":"US","MEAN_MOTION_DDOT":"0.0000000000000","PERIOD":"95.592","NORAD_CAT_ID":"48644","REF_FRAME":"TEME","ELEMENT_SET_NO":"999","BSTAR":"0.00002969100000","EPOCH":"2022-05-29T19:49:36.857856","TLE_LINE2":"2 48644  53.0541 196.0793 0001586  51.6342 308.4789 15.06401524 55739","SITE":"AFETR","GP_ID":"204889856","FILE":"3471362","CENTER_NAME":"EARTH","SEMIMAJOR_AXIS":"6925.344","INCLINATION":"53.0541","MEAN_ANOMALY":"308.4789","OBJECT_NAME":"STARLINK-2695","APOAPSIS":"548.307","RA_OF_ASC_NODE":"196.0793","TIME_SYSTEM":"UTC","PERIAPSIS":"546.111","LAUNCH_DATE":"2021-05-26","MEAN_MOTION_DOT":"0.00000161","DECAY_DATE":null,"OBJECT_ID":"2021-044G","MEAN_ELEMENT_THEORY":"SGP4","ECCENTRICITY":"0.00015860","RCS_SIZE":"LARGE","CLASSIFICATION_TYPE":"U","MEAN_MOTION":"15.06401524","EPHEMERIS_TYPE":"0","ARG_OF_PERICENTER":"51.6342","REV_AT_EPOCH":"5573","TLE_LINE1":"1 48644U 21044G   22149.82612104  .00000161  00000-0  29691-4 0  9998"},{"CLASSIFICATION_TYPE":"U","MEAN_MOTION":"15.06396701","EPHEMERIS_TYPE":"0","ARG_OF_PERICENTER":"63.3958","REV_AT_EPOCH":"5573","TLE_LINE1":"1 48645U 21044H   22149.82243258 -.00000799  00000-0 -34738-4 0  9996","TIME_SYSTEM":"UTC","PERIAPSIS":"546.129","LAUNCH_DATE":"2021-05-26","MEAN_MOTION_DOT":"-0.00000799","DECAY_DATE":null,"OBJECT_ID":"2021-044H","MEAN_ELEMENT_THEORY":"SGP4","ECCENTRICITY":"0.00015800","RCS_SIZE":"LARGE","CENTER_NAME":"EARTH","SEMIMAJOR_AXIS":"6925.359","INCLINATION":"53.0548","OBJECT_NAME":"STARLINK-2733","MEAN_ANOMALY":"296.7193","APOAPSIS":"548.318","RA_OF_ASC_NODE":"196.0929","COUNTRY_CODE":"US","MEAN_MOTION_DDOT":"0.0000000000000","OBJECT_TYPE":"PAYLOAD","PERIOD":"95.592","NORAD_CAT_ID":"48645","REF_FRAME":"TEME","ELEMENT_SET_NO":"999","EPOCH":"2022-05-29T19:44:18.174912","BSTAR":"-0.00003473800000","TLE_LINE2":"2 48645  53.0548 196.0929 0001580  63.3958 296.7193 15.06396701 55733","SITE":"AFETR","FILE":"3471362","GP_ID":"204890106"},{"ELEMENT_SET_NO":"999","REF_FRAME":"TEME","NORAD_CAT_ID":"48646","PERIOD":"95.592","COUNTRY_CODE":"US","OBJECT_TYPE":"PAYLOAD","MEAN_MOTION_DDOT":"0.0000000000000","FILE":"3471362","GP_ID":"204890353","SITE":"AFETR","EPOCH":"2022-05-29T19:38:58.514784","BSTAR":"0.00000218320000","TLE_LINE2":"2 48646  53.0545 196.0931 0001383  72.1927 287.9213 15.06406214 55735","SEMIMAJOR_AXIS":"6925.330","CENTER_NAME":"EARTH","INCLINATION":"53.0545","APOAPSIS":"548.152","OBJECT_NAME":"STARLINK-2732","MEAN_ANOMALY":"287.9213","RA_OF_ASC_NODE":"196.0931","LAUNCH_DATE":"2021-05-26","PERIAPSIS":"546.237","TIME_SYSTEM":"UTC","OBJECT_ID":"2021-044J","RCS_SIZE":"LARGE","ECCENTRICITY":"0.00013830","MEAN_ELEMENT_THEORY":"SGP4","MEAN_MOTION_DOT":"-0.00000249","DECAY_DATE":null,"CLASSIFICATION_TYPE":"U","MEAN_MOTION":"15.06406214","TLE_LINE1":"1 48646U 21044J   22149.81873281 -.00000249  00000-0  21832-5 0  9992","REV_AT_EPOCH":"5573","EPHEMERIS_TYPE":"0","ARG_OF_PERICENTER":"72.1927"},{"TLE_LINE2":"2 48647  53.0540 197.3188 0001396  68.7351 291.3787 15.06398947 55698","BSTAR":"0.00011254000000","EPOCH":"2022-05-29T13:11:31.475904","SITE":"AFETR","GP_ID":"204854242","FILE":"3470904","COUNTRY_CODE":"US","OBJECT_TYPE":"PAYLOAD","PERIOD":"95.592","MEAN_MOTION_DDOT":"0.0000000000000","NORAD_CAT_ID":"48647","REF_FRAME":"TEME","ELEMENT_SET_NO":"999","RA_OF_ASC_NODE":"197.3188","MEAN_ANOMALY":"291.3787","OBJECT_NAME":"STARLINK-2691","APOAPSIS":"548.184","INCLINATION":"53.0540","SEMIMAJOR_AXIS":"6925.352","CENTER_NAME":"EARTH","DECAY_DATE":null,"MEAN_MOTION_DOT":"0.00001395","MEAN_ELEMENT_THEORY":"SGP4","ECCENTRICITY":"0.00013960","RCS_SIZE":"LARGE","OBJECT_ID":"2021-044K","TIME_SYSTEM":"UTC","PERIAPSIS":"546.250","LAUNCH_DATE":"2021-05-26","EPHEMERIS_TYPE":"0","ARG_OF_PERICENTER":"68.7351","TLE_LINE1":"1 48647U 21044K   22149.54966986  .00001395  00000-0  11254-3 0  9995","REV_AT_EPOCH":"5569","MEAN_MOTION":"15.06398947","CLASSIFICATION_TYPE":"U"},{"RA_OF_ASC_NODE":"197.9169","APOAPSIS":"548.299","MEAN_ANOMALY":"299.9663","OBJECT_NAME":"STARLINK-2521","INCLINATION":"53.0542","SEMIMAJOR_AXIS":"6925.368","CENTER_NAME":"EARTH","TLE_LINE2":"2 48648  53.0542 197.9169 0001539  60.1479 299.9663 15.06393687 55673","EPOCH":"2022-05-29T09:59:05.491392","BSTAR":"-0.00000155540000","FILE":"3470904","GP_ID":"204854991","SITE":"AFETR","REF_FRAME":"TEME","NORAD_CAT_ID":"48648","PERIOD":"95.593","COUNTRY_CODE":"US","OBJECT_TYPE":"PAYLOAD","MEAN_MOTION_DDOT":"0.0000000000000","ELEMENT_SET_NO":"999","EPHEMERIS_TYPE":"0","ARG_OF_PERICENTER":"60.1479","TLE_LINE1":"1 48648U 21044L   22149.41603578 -.00000305  00000-0 -15554-5 0  9998","REV_AT_EPOCH":"5567","MEAN_MOTION":"15.06393687","CLASSIFICATION_TYPE":"U","DECAY_DATE":null,"MEAN_MOTION_DOT":"-0.00000305","RCS_SIZE":"LARGE","ECCENTRICITY":"0.00015390","MEAN_ELEMENT_THEORY":"SGP4","OBJECT_ID":"2021-044L","PERIAPSIS":"546.167","TIME_SYSTEM":"UTC","LAUNCH_DATE":"2021-05-26"},{"TIME_SYSTEM":"UTC","PERIAPSIS":"545.915","LAUNCH_DATE":"2021-05-26","DECAY_DATE":null,"MEAN_MOTION_DOT":"0.00002072","MEAN_ELEMENT_THEORY":"SGP4","ECCENTRICITY":"0.00018800","RCS_SIZE":"LARGE","OBJECT_ID":"2021-044M","MEAN_MOTION":"15.06398749","CLASSIFICATION_TYPE":"U","EPHEMERIS_TYPE":"0","ARG_OF_PERICENTER":"51.5574","REV_AT_EPOCH":"5566","TLE_LINE1":"1 48649U 21044M   22149.41329139  .00002072  00000-0  15795-3 0  9993","COUNTRY_CODE":"US","MEAN_MOTION_DDOT":"0.0000000000000","OBJECT_TYPE":"PAYLOAD","PERIOD":"95.592","NORAD_CAT_ID":"48649","REF_FRAME":"TEME","ELEMENT_SET_NO":"999","TLE_LINE2":"2 48649  53.0553 197.9180 0001880  51.5574 308.5584 15.06398749 55660","EPOCH":"2022-05-29T09:55:08.376096","BSTAR":"0.00015795000000","SITE":"AFETR","FILE":"3470904","GP_ID":"204853745","INCLINATION":"53.0553","CENTER_NAME":"EARTH","SEMIMAJOR_AXIS":"6925.352","RA_OF_ASC_NODE":"197.9180","OBJECT_NAME":"STARLINK-2673","MEAN_ANOMALY":"308.5584","APOAPSIS":"548.519"},{"CLASSIFICATION_TYPE":"U","MEAN_MOTION":"15.06391671","ARG_OF_PERICENTER":"53.9821","EPHEMERIS_TYPE":"0","REV_AT_EPOCH":"5652","TLE_LINE1":"1 48650U 21044N   22149.54230317  .00002069  00000-0  15779-3 0  9996","PERIAPSIS":"546.167","TIME_SYSTEM":"UTC","LAUNCH_DATE":"2021-05-26","MEAN_MOTION_DOT":"0.00002069","DECAY_DATE":null,"OBJECT_ID":"2021-044N","ECCENTRICITY":"0.00015480","RCS_SIZE":"LARGE","MEAN_ELEMENT_THEORY":"SGP4","SEMIMAJOR_AXIS":"6925.374","CENTER_NAME":"EARTH","INCLINATION":"53.0546","APOAPSIS":"548.311","OBJECT_NAME":"STARLINK-2672","MEAN_ANOMALY":"306.1311","RA_OF_ASC_NODE":"197.3549","REF_FRAME":"TEME","NORAD_CAT_ID":"48650","MEAN_MOTION_DDOT":"0.0000000000000","COUNTRY_CODE":"US","OBJECT_TYPE":"PAYLOAD","PERIOD":"95.593","ELEMENT_SET_NO":"999","BSTAR":"0.00015779000000","EPOCH":"2022-05-29T13:00:54.993888","TLE_LINE2":"2 48650  53.0546 197.3549 0001548  53.9821 306.1311 15.06391671 56524","FILE":"3470971","GP_ID":"204858996","SITE":"AFETR"},{"TLE_LINE1":"1 48651U 21044P   22149.60495631 -.00001210  00000-0 -62347-4 0  9999","REV_AT_EPOCH":"5569","ARG_OF_PERICENTER":"58.3442","EPHEMERIS_TYPE":"0","CLASSIFICATION_TYPE":"U","MEAN_MOTION":"15.06398433","OBJECT_ID":"2021-044P","RCS_SIZE":"LARGE","ECCENTRICITY":"0.00015430","MEAN_ELEMENT_THEORY":"SGP4","MEAN_MOTION_DOT":"-0.00001210","DECAY_DATE":null,"LAUNCH_DATE":"2021-05-26","PERIAPSIS":"546.150","TIME_SYSTEM":"UTC","APOAPSIS":"548.287","OBJECT_NAME":"STARLINK-2731","MEAN_ANOMALY":"301.7698","RA_OF_ASC_NODE":"197.0711","CENTER_NAME":"EARTH","SEMIMAJOR_AXIS":"6925.353","INCLINATION":"53.0545","FILE":"3471362","GP_ID":"204889607","SITE":"AFETR","BSTAR":"-0.00006234700000","EPOCH":"2022-05-29T14:31:08.225184","TLE_LINE2":"2 48651  53.0545 197.0711 0001543  58.3442 301.7698 15.06398433 55694","ELEMENT_SET_NO":"999","REF_FRAME":"TEME","NORAD_CAT_ID":"48651","COUNTRY_CODE":"US","PERIOD":"95.592","OBJECT_TYPE":"PAYLOAD","MEAN_MOTION_DDOT":"0.0000000000000"},{"COUNTRY_CODE":"US","OBJECT_TYPE":"PAYLOAD","PERIOD":"95.593","MEAN_MOTION_DDOT":"0.0000000000000","REF_FRAME":"TEME","NORAD_CAT_ID":"48652","ELEMENT_SET_NO":"999","BSTAR":"0.00014608000000","EPOCH":"2022-05-29T20:48:00.605952","TLE_LINE2":"2 48652  53.0556 195.8979 0001612  62.6941 297.4212 15.06392224 55738","SITE":"AFETR","GP_ID":"204889857","FILE":"3471362","CENTER_NAME":"EARTH","SEMIMAJOR_AXIS":"6925.372","INCLINATION":"53.0556","MEAN_ANOMALY":"297.4212","OBJECT_NAME":"STARLINK-2727","APOAPSIS":"548.354","RA_OF_ASC_NODE":"195.8979","TIME_SYSTEM":"UTC","PERIAPSIS":"546.121","LAUNCH_DATE":"2021-05-26","MEAN_MOTION_DOT":"0.00001895","DECAY_DATE":null,"OBJECT_ID":"2021-044Q","MEAN_ELEMENT_THEORY":"SGP4","ECCENTRICITY":"0.00016120","RCS_SIZE":"LARGE","CLASSIFICATION_TYPE":"U","MEAN_MOTION":"15.06392224","ARG_OF_PERICENTER":"62.6941","EPHEMERIS_TYPE":"0","REV_AT_EPOCH":"5573","TLE_LINE1":"1 48652U 21044Q   22149.86667368  .00001895  00000-0  14608-3 0  9999"}];
